[{"OBJECT_NAME":"OBJECT F","OBJECT_ID":"2024-024F","EPOCH":"2026-03-09T22:33:03.733056","MEAN_MOTION":15.20287854,"ECCENTRICITY":0.00130865,"INCLINATION":97.3129,"RA_OF_ASC_NODE":136.438,"ARG_OF_PERICENTER":36.354,"MEAN_ANOMALY":323.8582,"EPHEMERIS_TYPE":0,"CLASSIFICATION_TYPE":"U","NORAD_CAT_ID":58922,"ELEMENT_SET_NO":999,"REV_AT_EPOCH":11617,"BSTAR":0.00052703625,"MEAN_MOTION_DOT":0.00011414,"MEAN_MOTION_DDOT":0},{"OBJECT_NAME":"GENA-OT","OBJECT_ID":"2025-276DN","EPOCH":"2026-03-09T17:45:26.597088","MEAN_MOTION":15.19877093,"ECCENTRICITY":0.00019544,"INCLINATION":97.4281,"RA_OF_ASC_NODE":144.1751,"ARG_OF_PERICENTER":148.5398,"MEAN_ANOMALY":211.5954,"EPHEMERIS_TYPE":0,"CLASSIFICATION_TYPE":"U","NORAD_CAT_ID":66774,"ELEMENT_SET_NO":999,"REV_AT_EPOCH":1533,"BSTAR":0.00037147435,"MEAN_MOTION_DOT":7.907e-5,"MEAN_MOTION_DDOT":0}]
